{
  "links" : {
    "next" : "https://api.nasa.gov/neo/rest/v1/feed?start_date=2008-12-23&end_date=2008-12-23&detailed=true&api_key=t0TVs3DtDT2H8Oy2Zy8m2eVrNsAVKAexjcZXUckd",
    "prev" : "https://api.nasa.gov/neo/rest/v1/feed?start_date=2008-12-21&end_date=2008-12-21&detailed=true&api_key=t0TVs3DtDT2H8Oy2Zy8m2eVrNsAVKAexjcZXUckd",
    "self" : "https://api.nasa.gov/neo/rest/v1/feed?start_date=2008-12-22&end_date=2008-12-22&detailed=true&api_key=t0TVs3DtDT2H8Oy2Zy8m2eVrNsAVKAexjcZXUckd"
  },
  "element_count" : 8,
  "near_earth_objects" : {
    "2008-12-22" : [ {
      "links" : {
        "self" : "https://api.nasa.gov/neo/rest/v1/neo/3442842?api_key=t0TVs3DtDT2H8Oy2Zy8m2eVrNsAVKAexjcZXUckd"
      },
      "neo_reference_id" : "3442842",
      "name" : "(2008 YZ28)",
      "nasa_jpl_url" : "http://ssd.jpl.nasa.gov/sbdb.cgi?sstr=3442842",
      "absolute_magnitude_h" : 20.0,
      "estimated_diameter" : {
        "kilometers" : {
          "estimated_diameter_min" : 0.2658,
          "estimated_diameter_max" : 0.5943468684
        },
        "meters" : {
          "estimated_diameter_min" : 265.8,
          "estimated_diameter_max" : 594.3468684194
        },
        "miles" : {
          "estimated_diameter_min" : 0.1651604118,
          "estimated_diameter_max" : 0.369309908
        },
        "feet" : {
          "estimated_diameter_min" : 872.047272,
          "estimated_diameter_max" : 1949.9569797852
        }
      },
      "is_potentially_hazardous_asteroid" : false,
      "close_approach_data" : [ {
        "close_approach_date" : "2008-12-22",
        "epoch_date_close_approach" : 1229932800000,
        "relative_velocity" : {
          "kilometers_per_second" : "25.7241832259",
          "kilometers_per_hour" : "92607.059613146",
          "miles_per_hour" : "57542.4254579573"
        },
        "miss_distance" : {
          "astronomical" : "0.2064717401",
          "lunar" : "80.3175048828",
          "kilometers" : "30887734",
          "miles" : "19192748"
        },
        "orbiting_body" : "Earth"
      } ],
      "orbital_data" : {
        "orbit_id" : "21",
        "orbit_determination_date" : "2017-04-06 09:01:48",
        "orbit_uncertainty" : "0",
        "minimum_orbit_intersection" : ".0949834",
        "jupiter_tisserand_invariant" : "2.969",
        "epoch_osculation" : "2458000.5",
        "eccentricity" : ".619853241144916",
        "semi_major_axis" : "2.498779341591095",
        "inclination" : "35.3984616968129",
        "ascending_node_longitude" : "266.491066107156",
        "orbital_period" : "1442.747355955846",
        "perihelion_distance" : ".9499028677998955",
        "perihelion_argument" : "131.1738022023042",
        "aphelion_distance" : "4.047655815382295",
        "perihelion_time" : "2457675.477189344070",
        "mean_anomaly" : "81.10097124982406",
        "mean_motion" : ".2495239367543277",
        "equinox" : "J2000"
      }
    }, {
      "links" : {
        "self" : "https://api.nasa.gov/neo/rest/v1/neo/3621619?api_key=t0TVs3DtDT2H8Oy2Zy8m2eVrNsAVKAexjcZXUckd"
      },
      "neo_reference_id" : "3621619",
      "name" : "(2012 YN1)",
      "nasa_jpl_url" : "http://ssd.jpl.nasa.gov/sbdb.cgi?sstr=3621619",
      "absolute_magnitude_h" : 23.2,
      "estimated_diameter" : {
        "kilometers" : {
          "estimated_diameter_min" : 0.0608912622,
          "estimated_diameter_max" : 0.1361570015
        },
        "meters" : {
          "estimated_diameter_min" : 60.8912622106,
          "estimated_diameter_max" : 136.1570015386
        },
        "miles" : {
          "estimated_diameter_min" : 0.0378360645,
          "estimated_diameter_max" : 0.0846040122
        },
        "feet" : {
          "estimated_diameter_min" : 199.7744887109,
          "estimated_diameter_max" : 446.7093369279
        }
      },
      "is_potentially_hazardous_asteroid" : false,
      "close_approach_data" : [ {
        "close_approach_date" : "2008-12-22",
        "epoch_date_close_approach" : 1229932800000,
        "relative_velocity" : {
          "kilometers_per_second" : "14.710838883",
          "kilometers_per_hour" : "52959.0199786628",
          "miles_per_hour" : "32906.6754972975"
        },
        "miss_distance" : {
          "astronomical" : "0.2118455255",
          "lunar" : "82.407913208",
          "kilometers" : "31691640",
          "miles" : "19692272"
        },
        "orbiting_body" : "Earth"
      } ],
      "orbital_data" : {
        "orbit_id" : "9",
        "orbit_determination_date" : "2017-04-06 08:47:33",
        "orbit_uncertainty" : "1",
        "minimum_orbit_intersection" : ".132872",
        "jupiter_tisserand_invariant" : "5.139",
        "epoch_osculation" : "2458000.5",
        "eccentricity" : ".0871629160254597",
        "semi_major_axis" : "1.21555280293397",
        "inclination" : "26.99284126269086",
        "ascending_node_longitude" : "89.37854178676075",
        "orbital_period" : "489.5072974261843",
        "perihelion_distance" : "1.109601676047324",
        "perihelion_argument" : "21.28053183380859",
        "aphelion_distance" : "1.321503929820616",
        "perihelion_time" : "2457771.972155620529",
        "mean_anomaly" : "168.0670020838973",
        "mean_motion" : ".7354333671691309",
        "equinox" : "J2000"
      }
    }, {
      "links" : {
        "self" : "https://api.nasa.gov/neo/rest/v1/neo/3624059?api_key=t0TVs3DtDT2H8Oy2Zy8m2eVrNsAVKAexjcZXUckd"
      },
      "neo_reference_id" : "3624059",
      "name" : "(2013 AT72)",
      "nasa_jpl_url" : "http://ssd.jpl.nasa.gov/sbdb.cgi?sstr=3624059",
      "absolute_magnitude_h" : 24.2,
      "estimated_diameter" : {
        "kilometers" : {
          "estimated_diameter_min" : 0.0384197891,
          "estimated_diameter_max" : 0.0859092601
        },
        "meters" : {
          "estimated_diameter_min" : 38.4197891064,
          "estimated_diameter_max" : 85.9092601232
        },
        "miles" : {
          "estimated_diameter_min" : 0.0238729428,
          "estimated_diameter_max" : 0.0533815229
        },
        "feet" : {
          "estimated_diameter_min" : 126.0491808919,
          "estimated_diameter_max" : 281.8545369825
        }
      },
      "is_potentially_hazardous_asteroid" : false,
      "close_approach_data" : [ {
        "close_approach_date" : "2008-12-22",
        "epoch_date_close_approach" : 1229932800000,
        "relative_velocity" : {
          "kilometers_per_second" : "19.5622660241",
          "kilometers_per_hour" : "70424.1576867665",
          "miles_per_hour" : "43758.8328693133"
        },
        "miss_distance" : {
          "astronomical" : "0.2630148587",
          "lunar" : "102.3127746582",
          "kilometers" : "39346464",
          "miles" : "24448758"
        },
        "orbiting_body" : "Earth"
      } ],
      "orbital_data" : {
        "orbit_id" : "12",
        "orbit_determination_date" : "2017-04-06 08:47:14",
        "orbit_uncertainty" : "7",
        "minimum_orbit_intersection" : ".0220494",
        "jupiter_tisserand_invariant" : "8.261",
        "epoch_osculation" : "2458000.5",
        "eccentricity" : ".535942671975728",
        "semi_major_axis" : ".6781765731332074",
        "inclination" : "15.0199936972237",
        "ascending_node_longitude" : "118.21570794",
        "orbital_period" : "203.991749243783",
        "perihelion_distance" : ".3147128084568536",
        "perihelion_argument" : "167.7491738430729",
        "aphelion_distance" : "1.041640337809561",
        "perihelion_time" : "2458025.050394146310",
        "mean_anomaly" : "316.6740227218244",
        "mean_motion" : "1.76477725856342",
        "equinox" : "J2000"
      }
    } ]
  }
}